[
    {
        "Altitude(m)": 717179.2990865639,
        "Argument of Periapsis(deg)": 0.010251109067964361,
        "Eccentricity": 0.0,
        "Inclination(deg)": 45.0,
        "Latitude(deg)": -43.4458822967234,
        "Longitude(deg)": -10.2878508054914,
        "Mean Anomaly(deg)": -104.16560501726724,
        "RAAN(deg)": 199.99032325268763,
        "Satellite Name": "Constellation 1 895",
        "Satellite Number": 895,
        "Semi-Major Axis(m)": 7083131.272910544,
        "Time(s)": 171
    },
    {
        "Altitude(m)": 717185.2285488572,
        "Argument of Periapsis(deg)": 0.010311057074209765,
        "Eccentricity": 0.0,
        "Inclination(deg)": 45.0,
        "Latitude(deg)": -43.46024011430552,
        "Longitude(deg)": -10.211117894481218,
        "Mean Anomaly(deg)": -104.10490387701736,
        "RAAN(deg)": 199.99026666352205,
        "Satellite Name": "Constellation 1 895",
        "Satellite Number": 895,
        "Semi-Major Axis(m)": 7083131.272910544,
        "Time(s)": 172
    },
    {
        "Altitude(m)": 717191.1341790347,
        "Argument of Periapsis(deg)": 0.010371005080455171,
        "Eccentricity": 0.0,
        "Inclination(deg)": 45.0,
        "Latitude(deg)": -43.4745407282015,
        "Longitude(deg)": -10.134346879700255,
        "Mean Anomaly(deg)": -104.04420273676747,
        "RAAN(deg)": 199.9902100743565,
        "Satellite Name": "Constellation 1 895",
        "Satellite Number": 895,
        "Semi-Major Axis(m)": 7083131.272910544,
        "Time(s)": 173
    },
    {
        "Altitude(m)": 717197.0159553416,
        "Argument of Periapsis(deg)": 0.010430953086700577,
        "Eccentricity": 0.0,
        "Inclination(deg)": 45.0,
        "Latitude(deg)": -43.488784083570856,
        "Longitude(deg)": -10.057537876378898,
        "Mean Anomaly(deg)": -103.98350159651756,
        "RAAN(deg)": 199.9901534851909,
        "Satellite Name": "Constellation 1 895",
        "Satellite Number": 895,
        "Semi-Major Axis(m)": 7083131.272910544,
        "Time(s)": 174
    },
    {
        "Altitude(m)": 717202.8738561097,
        "Argument of Periapsis(deg)": 0.010490901092945983,
        "Eccentricity": 0.0,
        "Inclination(deg)": 45.0,
        "Latitude(deg)": -43.50297012572727,
        "Longitude(deg)": -9.98069100029317,
        "Mean Anomaly(deg)": -103.9228004562677,
        "RAAN(deg)": 199.99009689602534,
        "Satellite Name": "Constellation 1 895",
        "Satellite Number": 895,
        "Semi-Major Axis(m)": 7083131.272910544,
        "Time(s)": 175
    },
    {
        "Altitude(m)": 717208.7078597521,
        "Argument of Periapsis(deg)": 0.010550849099191389,
        "Eccentricity": 0.0,
        "Inclination(deg)": 45.0,
        "Latitude(deg)": -43.5170988001396,
        "Longitude(deg)": -9.903806367763933,
        "Mean Anomaly(deg)": -103.86209931601776,
        "RAAN(deg)": 199.99004030685975,
        "Satellite Name": "Constellation 1 895",
        "Satellite Number": 895,
        "Semi-Major Axis(m)": 7083131.272910544,
        "Time(s)": 176
    },
    {
        "Altitude(m)": 717214.5179447838,
        "Argument of Periapsis(deg)": 0.010610797105436795,
        "Eccentricity": 0.0,
        "Inclination(deg)": 45.0,
        "Latitude(deg)": -43.53117005243253,
        "Longitude(deg)": -9.826884095656807,
        "Mean Anomaly(deg)": -103.8013981757679,
        "RAAN(deg)": 199.9899837176942,
        "Satellite Name": "Constellation 1 895",
        "Satellite Number": 895,
        "Semi-Major Axis(m)": 7083131.272910544,
        "Time(s)": 177
    },
    {
        "Altitude(m)": 717220.3040897938,
        "Argument of Periapsis(deg)": 0.0106707451116822,
        "Eccentricity": 0.0,
        "Inclination(deg)": 45.0,
        "Latitude(deg)": -43.54518382838805,
        "Longitude(deg)": -9.749924469477744,
        "Mean Anomaly(deg)": -103.74069703551795,
        "RAAN(deg)": 199.98992712852865,
        "Satellite Name": "Constellation 1 895",
        "Satellite Number": 895,
        "Semi-Major Axis(m)": 7083131.272910544,
        "Time(s)": 178
    },
    {
        "Altitude(m)": 717226.06627346,
        "Argument of Periapsis(deg)": 0.010730693117927606,
        "Eccentricity": 0.0,
        "Inclination(deg)": 45.0,
        "Latitude(deg)": -43.55914007394494,
        "Longitude(deg)": -9.672927270984768,
        "Mean Anomaly(deg)": -103.67999589526812,
        "RAAN(deg)": 199.98987053936304,
        "Satellite Name": "Constellation 1 895",
        "Satellite Number": 895,
        "Semi-Major Axis(m)": 7083131.272910544,
        "Time(s)": 179
    },
    {
        "Altitude(m)": 717231.8044745576,
        "Argument of Periapsis(deg)": 0.01079064112417301,
        "Eccentricity": 0.0,
        "Inclination(deg)": 45.0,
        "Latitude(deg)": -43.57303873520161,
        "Longitude(deg)": -9.595892786769111,
        "Mean Anomaly(deg)": -103.61929475501819,
        "RAAN(deg)": 199.9898139501975,
        "Satellite Name": "Constellation 1 895",
        "Satellite Number": 895,
        "Semi-Major Axis(m)": 7083131.272910544,
        "Time(s)": 180
    },
    {
        "Altitude(m)": 717237.518671939,
        "Argument of Periapsis(deg)": 0.010850589130418416,
        "Eccentricity": 0.0,
        "Inclination(deg)": 45.0,
        "Latitude(deg)": -43.586879758415705,
        "Longitude(deg)": -9.5188211358668,
        "Mean Anomaly(deg)": -103.55859361476823,
        "RAAN(deg)": 199.9897573610319,
        "Satellite Name": "Constellation 1 895",
        "Satellite Number": 895,
        "Semi-Major Axis(m)": 7083131.272910544,
        "Time(s)": 181
    },
    {
        "Altitude(m)": 717243.2088445463,
        "Argument of Periapsis(deg)": 0.01091053713666382,
        "Eccentricity": 0.0,
        "Inclination(deg)": 45.0,
        "Latitude(deg)": -43.60066309000521,
        "Longitude(deg)": -9.44171243785484,
        "Mean Anomaly(deg)": -103.49789247451838,
        "RAAN(deg)": 199.98970077186635,
        "Satellite Name": "Constellation 1 895",
        "Satellite Number": 895,
        "Semi-Major Axis(m)": 7083131.272910544,
        "Time(s)": 182
    },
    {
        "Altitude(m)": 717248.8749714121,
        "Argument of Periapsis(deg)": 0.010970485142909228,
        "Eccentricity": 0.0,
        "Inclination(deg)": 45.0,
        "Latitude(deg)": -43.61438867654967,
        "Longitude(deg)": -9.36456681284989,
        "Mean Anomaly(deg)": -103.4371913342685,
        "RAAN(deg)": 199.98964418270077,
        "Satellite Name": "Constellation 1 895",
        "Satellite Number": 895,
        "Semi-Major Axis(m)": 7083131.272910544,
        "Time(s)": 183
    },
    {
        "Altitude(m)": 717254.5170316574,
        "Argument of Periapsis(deg)": 0.011030433149154634,
        "Eccentricity": 0.0,
        "Inclination(deg)": 45.0,
        "Latitude(deg)": -43.62805646479072,
        "Longitude(deg)": -9.287384381508119,
        "Mean Anomaly(deg)": -103.37649019401856,
        "RAAN(deg)": 199.9895875935352,
        "Satellite Name": "Constellation 1 895",
        "Satellite Number": 895,
        "Semi-Major Axis(m)": 7083131.272910544,
        "Time(s)": 184
    },
    {
        "Altitude(m)": 717260.1350044901,
        "Argument of Periapsis(deg)": 0.01109038115540004,
        "Eccentricity": 0.0,
        "Inclination(deg)": 45.0,
        "Latitude(deg)": -43.64166640163342,
        "Longitude(deg)": -9.210165433121563,
        "Mean Anomaly(deg)": -103.31578905376867,
        "RAAN(deg)": 199.98953100436964,
        "Satellite Name": "Constellation 1 895",
        "Satellite Number": 895,
        "Semi-Major Axis(m)": 7083131.272910544,
        "Time(s)": 185
    },
    {
        "Altitude(m)": 717265.7288692044,
        "Argument of Periapsis(deg)": 0.011150329161645444,
        "Eccentricity": 0.0,
        "Inclination(deg)": 45.0,
        "Latitude(deg)": -43.65521843414601,
        "Longitude(deg)": -9.132909753228507,
        "Mean Anomaly(deg)": -103.25508791351885,
        "RAAN(deg)": 199.98947441520406,
        "Satellite Name": "Constellation 1 895",
        "Satellite Number": 895,
        "Semi-Major Axis(m)": 7083131.272910544,
        "Time(s)": 186
    },
    {
        "Altitude(m)": 717271.2986051822,
        "Argument of Periapsis(deg)": 0.01121027716789085,
        "Eccentricity": 0.0,
        "Inclination(deg)": 45.0,
        "Latitude(deg)": -43.6687125095625,
        "Longitude(deg)": -9.05561763219513,
        "Mean Anomaly(deg)": -103.19438677326887,
        "RAAN(deg)": 199.9894178260385,
        "Satellite Name": "Constellation 1 895",
        "Satellite Number": 895,
        "Semi-Major Axis(m)": 7083131.272910544,
        "Time(s)": 187
    },
    {
        "Altitude(m)": 717276.8441918993,
        "Argument of Periapsis(deg)": 0.011270225174136258,
        "Eccentricity": 0.0,
        "Inclination(deg)": 45.0,
        "Latitude(deg)": -43.68214857528243,
        "Longitude(deg)": -8.978289192827102,
        "Mean Anomaly(deg)": -103.13368563301894,
        "RAAN(deg)": 199.98936123687292,
        "Satellite Name": "Constellation 1 895",
        "Satellite Number": 895,
        "Semi-Major Axis(m)": 7083131.272910544,
        "Time(s)": 188
    },
    {
        "Altitude(m)": 717282.3656089116,
        "Argument of Periapsis(deg)": 0.011330173180381662,
        "Eccentricity": 0.0,
        "Inclination(deg)": 45.0,
        "Latitude(deg)": -43.69552657887194,
        "Longitude(deg)": -8.900924558465274,
        "Mean Anomaly(deg)": -103.07298449276905,
        "RAAN(deg)": 199.98930464770737,
        "Satellite Name": "Constellation 1 895",
        "Satellite Number": 895,
        "Semi-Major Axis(m)": 7083131.272910544,
        "Time(s)": 189
    }
]